{
"type": "FeatureCollection",
"name": "DB_FICHAS_MONITOREO_P",
"crs": { "type": "name", "properties": { "name": "urn:ogc:def:crs:OGC:1.3:CRS84" } },
"features": [
{ "type": "Feature", "properties": { "cod": "20251231_11D13_1411", "DPA_DESPRO": "MANABÍ", "DPA_DESCAN": "JAMA", "DPA_DESPAR": "JAMA", "name": "PATRIMONIO FORESTAL NACIONAL", "delimitaci": "PFN", "fm_area": 523.02, "fm_cod": "2026-MAE-DB-SNMB-001", "fm_este": 571501, "fm_norte": 9966121, "fm_date1": "2025-09-25", "fm_date2": "2025-12-26", "Shape_Leng": null, "Shape_Area": null, "fm_monit": "2026-01-31", "fm_anio": 2026, "fm_severid": "ALTA", "ORIG_FID": null }, "geometry": { "type": "Point", "coordinates": [ -80.356865576425761, -0.30305525251598 ] } },
{ "type": "Feature", "properties": { "cod": "20251231_31A09_1680", "DPA_DESPRO": "MANABÍ", "DPA_DESCAN": "MONTECRISTI", "DPA_DESPAR": "MONTECRISTI", "name": "PATRIMONIO FORESTAL NACIONAL", "delimitaci": "PFN", "fm_area": 149.3, "fm_cod": "2026-MAE-DB-SNMB-002", "fm_este": 528131, "fm_norte": 9868402, "fm_date1": "2025-05-23", "fm_date2": "2025-12-26", "Shape_Leng": null, "Shape_Area": null, "fm_monit": "2026-01-31", "fm_anio": 2026, "fm_severid": "ALTA", "ORIG_FID": null }, "geometry": { "type": "Point", "coordinates": [ -80.747164034937484, -1.189652257922493 ] } },
{ "type": "Feature", "properties": { "cod": "20251231_54D12_1007", "DPA_DESPRO": "MORONA SANTIAGO", "DPA_DESCAN": "TAISHA", "DPA_DESPAR": "TUUTINENTSA", "name": "PATRIMONIO FORESTAL NACIONAL", "delimitaci": "PFN", "fm_area": 82.73, "fm_cod": "2026-MAE-DB-SNMB-003", "fm_este": 882029, "fm_norte": 9682951, "fm_date1": "2025-08-30", "fm_date2": "2025-12-23", "Shape_Leng": null, "Shape_Area": null, "fm_monit": "2026-01-31", "fm_anio": 2026, "fm_severid": "ALTA", "ORIG_FID": null }, "geometry": { "type": "Point", "coordinates": [ -77.564601889308236, -2.863238195067691 ] } },
{ "type": "Feature", "properties": { "cod": "20251231_31A01_1439", "DPA_DESPRO": "MANABÍ", "DPA_DESCAN": "MONTECRISTI", "DPA_DESPAR": "MONTECRISTI", "name": "PATRIMONIO FORESTAL NACIONAL", "delimitaci": "PFN", "fm_area": 45.05, "fm_cod": "2026-MAE-DB-SNMB-004", "fm_este": 529728, "fm_norte": 9880474, "fm_date1": "2025-08-31", "fm_date2": "2025-12-26", "Shape_Leng": null, "Shape_Area": null, "fm_monit": "2026-01-31", "fm_anio": 2026, "fm_severid": "ALTA", "ORIG_FID": null }, "geometry": { "type": "Point", "coordinates": [ -80.732799134548998, -1.081379909745095 ] } },
{ "type": "Feature", "properties": { "cod": "20251231_05A06_1070", "DPA_DESPRO": "ESMERALDAS", "DPA_DESCAN": "RIOVERDE", "DPA_DESPAR": "ROCAFUERTE", "name": "PATRIMONIO FORESTAL NACIONAL", "delimitaci": "PFN", "fm_area": 40.11, "fm_cod": "2026-MAE-DB-SNMB-005", "fm_este": 687277, "fm_norte": 10092916, "fm_date1": "2025-09-25", "fm_date2": "2025-12-11", "Shape_Leng": null, "Shape_Area": null, "fm_monit": "2026-01-31", "fm_anio": 2026, "fm_severid": "ALTA", "ORIG_FID": null }, "geometry": { "type": "Point", "coordinates": [ -79.317051991883119, 0.840278737138975 ] } },
{ "type": "Feature", "properties": { "cod": "20251231_11D14_1326", "DPA_DESPRO": "MANABÍ", "DPA_DESCAN": "JAMA", "DPA_DESPAR": "JAMA", "name": "PATRIMONIO FORESTAL NACIONAL", "delimitaci": "PFN", "fm_area": 50.64, "fm_cod": "2026-MAE-DB-SNMB-006", "fm_este": 575261, "fm_norte": 9971320, "fm_date1": "2025-09-25", "fm_date2": "2025-12-26", "Shape_Leng": null, "Shape_Area": null, "fm_monit": "2026-01-31", "fm_anio": 2026, "fm_severid": "ALTA", "ORIG_FID": null }, "geometry": { "type": "Point", "coordinates": [ -80.32056698085141, -0.259827556509819 ] } },
{ "type": "Feature", "properties": { "cod": "20251231_03C10_1091", "DPA_DESPRO": "ESMERALDAS", "DPA_DESCAN": "SAN LORENZO", "DPA_DESPAR": "TULULBÍ", "name": "ASOCIACION AGRICOLA CARCHI - IMBABURA", "delimitaci": "BVP", "fm_area": 26.08, "fm_cod": "2026-MAE-DB-SNMB-007", "fm_este": 761572, "fm_norte": 10118593, "fm_date1": "2025-07-14", "fm_date2": "2025-12-11", "Shape_Leng": null, "Shape_Area": null, "fm_monit": "2026-01-31", "fm_anio": 2026, "fm_severid": "ALTA", "ORIG_FID": null }, "geometry": { "type": "Point", "coordinates": [ -78.649575646567214, 1.072042159101973 ] } },
{ "type": "Feature", "properties": { "cod": "20251231_06A02_1032", "DPA_DESPRO": "ESMERALDAS", "DPA_DESCAN": "SAN LORENZO", "DPA_DESPAR": "5 DE JUNIO", "name": "PATRIMONIO FORESTAL NACIONAL", "delimitaci": "PFN", "fm_area": 23.5, "fm_cod": "2026-MAE-DB-SNMB-008", "fm_este": 754826, "fm_norte": 10101637, "fm_date1": "2025-04-05", "fm_date2": "2025-12-11", "Shape_Leng": null, "Shape_Area": null, "fm_monit": "2026-01-31", "fm_anio": 2026, "fm_severid": "ALTA", "ORIG_FID": null }, "geometry": { "type": "Point", "coordinates": [ -78.709200081482237, 0.917878116475304 ] } },
{ "type": "Feature", "properties": { "cod": "20251231_18A02_1003", "DPA_DESPRO": "SUCUMBÍOS", "DPA_DESCAN": "PUTUMAYO", "DPA_DESPAR": "PUERTO EL CARMEN DE PUTUMAYO", "name": "PATRIMONIO FORESTAL NACIONAL", "delimitaci": "PFN", "fm_area": 64.15, "fm_cod": "2026-MAE-DB-SNMB-009", "fm_este": 1045137, "fm_norte": 10032314, "fm_date1": "2025-09-21", "fm_date2": "2025-12-28", "Shape_Leng": null, "Shape_Area": null, "fm_monit": "2026-01-31", "fm_anio": 2026, "fm_severid": "ALTA", "ORIG_FID": null }, "geometry": { "type": "Point", "coordinates": [ -76.109576005838221, 0.287015807250297 ] } },
{ "type": "Feature", "properties": { "cod": "20251231_02D08_1043", "DPA_DESPRO": "ESMERALDAS", "DPA_DESCAN": "SAN LORENZO", "DPA_DESPAR": "TAMBILLO", "name": "BLOQUE 14 ESMERALDAS", "delimitaci": "PFE", "fm_area": 15.02, "fm_cod": "2026-MAE-DB-SNMB-010", "fm_este": 740794, "fm_norte": 10127860, "fm_date1": "2025-03-18", "fm_date2": "2025-12-11", "Shape_Leng": null, "Shape_Area": null, "fm_monit": "2026-01-31", "fm_anio": 2026, "fm_severid": "ALTA", "ORIG_FID": null }, "geometry": { "type": "Point", "coordinates": [ -78.836127936865637, 1.155956835594081 ] } },
{ "type": "Feature", "properties": { "cod": "20251231_41D15_2011", "DPA_DESPRO": "SANTA ELENA", "DPA_DESCAN": "SANTA ELENA", "DPA_DESPAR": "SIMÓN BOLÍVAR", "name": "PATRIMONIO FORESTAL NACIONAL", "delimitaci": "PFN", "fm_area": 14.38, "fm_cod": "2026-MAE-DB-SNMB-011", "fm_este": 580973, "fm_norte": 9750976, "fm_date1": "2025-09-17", "fm_date2": "2026-01-03", "Shape_Leng": null, "Shape_Area": null, "fm_monit": "2026-01-31", "fm_anio": 2026, "fm_severid": "ALTA", "ORIG_FID": null }, "geometry": { "type": "Point", "coordinates": [ -80.271772542877699, -2.252804355343397 ] } },
{ "type": "Feature", "properties": { "cod": "20251231_05A14_1111", "DPA_DESPRO": "ESMERALDAS", "DPA_DESCAN": "RIOVERDE", "DPA_DESPAR": "CHUMUNDÉ", "name": "PATRIMONIO FORESTAL NACIONAL", "delimitaci": "PFN", "fm_area": 13.94, "fm_cod": "2026-MAE-DB-SNMB-012", "fm_este": 686493, "fm_norte": 10076422, "fm_date1": "2025-09-25", "fm_date2": "2025-12-11", "Shape_Leng": null, "Shape_Area": null, "fm_monit": "2026-01-31", "fm_anio": 2026, "fm_severid": "ALTA", "ORIG_FID": null }, "geometry": { "type": "Point", "coordinates": [ -79.324150754489494, 0.691119224511825 ] } },
{ "type": "Feature", "properties": { "cod": "20251231_17B08_1035", "DPA_DESPRO": "SUCUMBÍOS", "DPA_DESCAN": "PUTUMAYO", "DPA_DESPAR": "SANSAHUARI", "name": "UNIDAD 5 NAPO", "delimitaci": "PFE", "fm_area": 12.48, "fm_cod": "2026-MAE-DB-SNMB-013", "fm_este": 1027994, "fm_norte": 10017657, "fm_date1": "2025-09-21", "fm_date2": "2025-12-23", "Shape_Leng": null, "Shape_Area": null, "fm_monit": "2026-01-31", "fm_anio": 2026, "fm_severid": "ALTA", "ORIG_FID": null }, "geometry": { "type": "Point", "coordinates": [ -76.260481198834313, 0.159196985764827 ] } },
{ "type": "Feature", "properties": { "cod": "20251231_41B09_1171", "DPA_DESPRO": "MANABÍ", "DPA_DESCAN": "PAJÁN", "DPA_DESPAR": "CASCOL", "name": "PATRIMONIO FORESTAL NACIONAL", "delimitaci": "PFN", "fm_area": 12.47, "fm_cod": "2026-MAE-DB-SNMB-014", "fm_este": 564906, "fm_norte": 9798222, "fm_date1": "2025-08-31", "fm_date2": "2026-01-05", "Shape_Leng": null, "Shape_Area": null, "fm_monit": "2026-01-31", "fm_anio": 2026, "fm_severid": "ALTA", "ORIG_FID": null }, "geometry": { "type": "Point", "coordinates": [ -80.416425623967228, -1.825445199366774 ] } },
{ "type": "Feature", "properties": { "cod": "20251231_16D03_1079", "DPA_DESPRO": "SUCUMBÍOS", "DPA_DESCAN": "LAGO AGRIO", "DPA_DESPAR": "EL ENO", "name": "PATRIMONIO FORESTAL NACIONAL", "delimitaci": "PFN", "fm_area": 11.75, "fm_cod": "2026-MAE-DB-SNMB-015", "fm_este": 947231, "fm_norte": 9995554, "fm_date1": "2025-07-21", "fm_date2": "2025-12-06", "Shape_Leng": null, "Shape_Area": null, "fm_monit": "2026-01-31", "fm_anio": 2026, "fm_severid": "ALTA", "ORIG_FID": null }, "geometry": { "type": "Point", "coordinates": [ -76.984158342318551, -0.040121022375075 ] } },
{ "type": "Feature", "properties": { "cod": "20251231_50B10_2242", "DPA_DESPRO": "GUAYAS", "DPA_DESCAN": "GUAYAQUIL", "DPA_DESPAR": "MORRO", "name": "PATRIMONIO FORESTAL NACIONAL", "delimitaci": "PFN", "fm_area": 10.99, "fm_cod": "2026-MAE-DB-SNMB-016", "fm_este": 579196, "fm_norte": 9719515, "fm_date1": "2025-09-25", "fm_date2": "2026-01-05", "Shape_Leng": null, "Shape_Area": null, "fm_monit": "2026-01-31", "fm_anio": 2026, "fm_severid": "ALTA", "ORIG_FID": null }, "geometry": { "type": "Point", "coordinates": [ -80.288736127833801, -2.53590305070273 ] } },
{ "type": "Feature", "properties": { "cod": "20251231_11D08_1192", "DPA_DESPRO": "MANABÍ", "DPA_DESCAN": "JAMA", "DPA_DESPAR": "JAMA", "name": "PATRIMONIO FORESTAL NACIONAL", "delimitaci": "PFN", "fm_area": 10.61, "fm_cod": "2026-MAE-DB-SNMB-017", "fm_este": 593028, "fm_norte": 9984028, "fm_date1": "2025-03-24", "fm_date2": "2025-12-06", "Shape_Leng": null, "Shape_Area": null, "fm_monit": "2026-01-31", "fm_anio": 2026, "fm_severid": "ALTA", "ORIG_FID": null }, "geometry": { "type": "Point", "coordinates": [ -80.164011365351897, -0.144491837445247 ] } },
{ "type": "Feature", "properties": { "cod": "20251231_05A11_1104", "DPA_DESPRO": "ESMERALDAS", "DPA_DESCAN": "ELOY ALFARO", "DPA_DESPAR": "SANTO DOMINGO DE ONZOLE", "name": "PATRIMONIO FORESTAL NACIONAL", "delimitaci": "PFN", "fm_area": 10.18, "fm_cod": "2026-MAE-DB-SNMB-018", "fm_este": 697315, "fm_norte": 10081309, "fm_date1": "2025-06-26", "fm_date2": "2025-12-11", "Shape_Leng": null, "Shape_Area": null, "fm_monit": "2026-01-31", "fm_anio": 2026, "fm_severid": "ALTA", "ORIG_FID": null }, "geometry": { "type": "Point", "coordinates": [ -79.226918917931087, 0.735275307305072 ] } },
{ "type": "Feature", "properties": { "cod": "20251231_55A09_1004", "DPA_DESPRO": "MORONA SANTIAGO", "DPA_DESCAN": "TAISHA", "DPA_DESPAR": "TUUTINENTSA", "name": "PATRIMONIO FORESTAL NACIONAL", "delimitaci": "PFN", "fm_area": 8.06, "fm_cod": "2026-MAE-DB-SNMB-019", "fm_este": 891215, "fm_norte": 9718657, "fm_date1": "2025-03-08", "fm_date2": "2025-12-23", "Shape_Leng": null, "Shape_Area": null, "fm_monit": "2026-01-31", "fm_anio": 2026, "fm_severid": "ALTA", "ORIG_FID": null }, "geometry": { "type": "Point", "coordinates": [ -77.48361063733627, -2.540887156894463 ] } },
{ "type": "Feature", "properties": { "cod": "20251231_05B04_1045", "DPA_DESPRO": "ESMERALDAS", "DPA_DESCAN": "SAN LORENZO", "DPA_DESPAR": "CONCEPCIÓN", "name": "PATRIMONIO FORESTAL NACIONAL", "delimitaci": "PFN", "fm_area": 7.98, "fm_cod": "2026-MAE-DB-SNMB-020", "fm_este": 739560, "fm_norte": 10102949, "fm_date1": "2025-06-26", "fm_date2": "2025-12-11", "Shape_Leng": null, "Shape_Area": null, "fm_monit": "2026-01-31", "fm_anio": 2026, "fm_severid": "ALTA", "ORIG_FID": null }, "geometry": { "type": "Point", "coordinates": [ -78.845935516893988, 0.930291581300808 ] } },
{ "type": "Feature", "properties": { "cod": "20260131_05B03_1039", "DPA_DESPRO": "ESMERALDAS", "DPA_DESCAN": "ELOY ALFARO", "DPA_DESPAR": "BORBÓN", "name": "PATRIMONIO FORESTAL NACIONAL", "delimitaci": "PFN", "fm_area": 114.96, "fm_cod": "2026-MAE-DB-SNMB-021", "fm_este": 729613, "fm_norte": 10105047, "fm_date1": "2025-06-26", "fm_date2": "2025-12-11", "Shape_Leng": null, "Shape_Area": null, "fm_monit": "2026-02-28", "fm_anio": 2026, "fm_severid": "ALTA", "ORIG_FID": null }, "geometry": { "type": "Point", "coordinates": [ -78.933372021410989, 0.947971455358261 ] } },
{ "type": "Feature", "properties": { "cod": "20260131_02D12_1050", "DPA_DESPRO": "ESMERALDAS", "DPA_DESCAN": "SAN LORENZO", "DPA_DESPAR": "CONCEPCIÓN", "name": "PATRIMONIO FORESTAL NACIONAL", "delimitaci": "PFN", "fm_area": 44.93, "fm_cod": "2026-MAE-DB-SNMB-022", "fm_este": 738670, "fm_norte": 10124187, "fm_date1": "2025-03-18", "fm_date2": "2025-12-11", "Shape_Leng": null, "Shape_Area": null, "fm_monit": "2026-02-28", "fm_anio": 2026, "fm_severid": "ALTA", "ORIG_FID": null }, "geometry": { "type": "Point", "coordinates": [ -78.855227441370616, 1.122764072441878 ] } },
{ "type": "Feature", "properties": { "cod": "20260131_04B06_1122", "DPA_DESPRO": "ESMERALDAS", "DPA_DESCAN": "ESMERALDAS", "DPA_DESPAR": "VUELTA LARGA", "name": "PATRIMONIO FORESTAL NACIONAL", "delimitaci": "PFN", "fm_area": 43.18, "fm_cod": "2026-MAE-DB-SNMB-023", "fm_este": 645088, "fm_norte": 10096029, "fm_date1": "2025-06-09", "fm_date2": "2026-01-28", "Shape_Leng": null, "Shape_Area": null, "fm_monit": "2026-02-28", "fm_anio": 2026, "fm_severid": "ALTA", "ORIG_FID": null }, "geometry": { "type": "Point", "coordinates": [ -79.696097934736883, 0.868577848150006 ] } },
{ "type": "Feature", "properties": { "cod": "20260131_04B03_1051", "DPA_DESPRO": "ESMERALDAS", "DPA_DESCAN": "ESMERALDAS", "DPA_DESPAR": "TACHINA", "name": "PATRIMONIO FORESTAL NACIONAL", "delimitaci": "PFN", "fm_area": 22.88, "fm_cod": "2026-MAE-DB-SNMB-024", "fm_este": 660143, "fm_norte": 10101088, "fm_date1": "2025-06-29", "fm_date2": "2026-01-28", "Shape_Leng": null, "Shape_Area": null, "fm_monit": "2026-02-28", "fm_anio": 2026, "fm_severid": "ALTA", "ORIG_FID": null }, "geometry": { "type": "Point", "coordinates": [ -79.560882338741649, 0.914931076101552 ] } },
{ "type": "Feature", "properties": { "cod": "20260131_05B03_1045", "DPA_DESPRO": "ESMERALDAS", "DPA_DESCAN": "ELOY ALFARO", "DPA_DESPAR": "SELVA ALEGRE", "name": "PATRIMONIO FORESTAL NACIONAL", "delimitaci": "PFN", "fm_area": 17.07, "fm_cod": "2026-MAE-DB-SNMB-025", "fm_este": 733117, "fm_norte": 10102804, "fm_date1": "2025-06-26", "fm_date2": "2025-12-11", "Shape_Leng": null, "Shape_Area": null, "fm_monit": "2026-02-28", "fm_anio": 2026, "fm_severid": "ALTA", "ORIG_FID": null }, "geometry": { "type": "Point", "coordinates": [ -78.903630990730235, 0.929034897397957 ] } },
{ "type": "Feature", "properties": { "cod": "20260131_04B01_1053", "DPA_DESPRO": "ESMERALDAS", "DPA_DESCAN": "ESMERALDAS", "DPA_DESPAR": "VUELTA LARGA", "name": "PATRIMONIO FORESTAL NACIONAL", "delimitaci": "PFN", "fm_area": 16.96, "fm_cod": "2026-MAE-DB-SNMB-026", "fm_este": 640292, "fm_norte": 10100261, "fm_date1": "2025-03-29", "fm_date2": "2025-12-29", "Shape_Leng": null, "Shape_Area": null, "fm_monit": "2026-02-28", "fm_anio": 2026, "fm_severid": "ALTA", "ORIG_FID": null }, "geometry": { "type": "Point", "coordinates": [ -79.739179445293871, 0.90686799266992 ] } },
{ "type": "Feature", "properties": { "cod": "20260131_62D05_1231", "DPA_DESPRO": "LOJA", "DPA_DESCAN": "ZAPOTILLO", "DPA_DESPAR": "MANGAHURCO", "name": "PATRIMONIO FORESTAL NACIONAL", "delimitaci": "PFN", "fm_area": 16.01, "fm_cod": "2026-MAE-DB-SNMB-027", "fm_este": 570315, "fm_norte": 9548359, "fm_date1": "2025-06-24", "fm_date2": "2025-12-24", "Shape_Leng": null, "Shape_Area": null, "fm_monit": "2026-02-28", "fm_anio": 2026, "fm_severid": "ALTA", "ORIG_FID": null }, "geometry": { "type": "Point", "coordinates": [ -80.366429158345113, -4.085370934579368 ] } },
{ "type": "Feature", "properties": { "cod": "20260131_60D13_1048", "DPA_DESPRO": "ZAMORA CHINCHIPE", "DPA_DESCAN": "EL PANGUI", "DPA_DESPAR": "TUNDAYME", "name": "PATRIMONIO FORESTAL NACIONAL", "delimitaci": "PFN", "fm_area": 12.98, "fm_cod": "2026-MAE-DB-SNMB-028", "fm_este": 783239, "fm_norte": 9600269, "fm_date1": "2025-07-06", "fm_date2": "2025-12-01", "Shape_Leng": null, "Shape_Area": null, "fm_monit": "2026-02-28", "fm_anio": 2026, "fm_severid": "ALTA", "ORIG_FID": null }, "geometry": { "type": "Point", "coordinates": [ -78.451031632543234, -3.617134156747077 ] } },
{ "type": "Feature", "properties": { "cod": "20260131_05B09_1184", "DPA_DESPRO": "ESMERALDAS", "DPA_DESCAN": "ELOY ALFARO", "DPA_DESPAR": "SANTO DOMINGO DE ONZOLE", "name": "PATRIMONIO FORESTAL NACIONAL", "delimitaci": "PFN", "fm_area": 12.59, "fm_cod": "2026-MAE-DB-SNMB-029", "fm_este": 710796, "fm_norte": 10088295, "fm_date1": "2025-06-26", "fm_date2": "2025-12-11", "Shape_Leng": null, "Shape_Area": null, "fm_monit": "2026-02-28", "fm_anio": 2026, "fm_severid": "ALTA", "ORIG_FID": null }, "geometry": { "type": "Point", "coordinates": [ -79.105797892536145, 0.798390902689656 ] } },
{ "type": "Feature", "properties": { "cod": "20260131_02D11_1068", "DPA_DESPRO": "ESMERALDAS", "DPA_DESCAN": "SAN LORENZO", "DPA_DESPAR": "CONCEPCIÓN", "name": "HUMEDAL DEL YALARE", "delimitaci": "BVP", "fm_area": 12.2, "fm_cod": "2026-MAE-DB-SNMB-030", "fm_este": 734813, "fm_norte": 10118491, "fm_date1": "2025-03-18", "fm_date2": "2026-01-20", "Shape_Leng": null, "Shape_Area": null, "fm_monit": "2026-02-28", "fm_anio": 2026, "fm_severid": "ALTA", "ORIG_FID": null }, "geometry": { "type": "Point", "coordinates": [ -78.890519505800995, 1.072041509896053 ] } },
{ "type": "Feature", "properties": { "cod": "20260131_04B09_1188", "DPA_DESPRO": "ESMERALDAS", "DPA_DESCAN": "ESMERALDAS", "DPA_DESPAR": "TABIAZO", "name": "CUENCAS DE LOS RIOS TABIAZO, ATACAMES, SUA Y TONCHIGUE", "delimitaci": "BVP", "fm_area": 11.72, "fm_cod": "2026-MAE-DB-SNMB-031", "fm_este": 638455, "fm_norte": 10086841, "fm_date1": "2025-06-29", "fm_date2": "2026-01-23", "Shape_Leng": null, "Shape_Area": null, "fm_monit": "2026-02-28", "fm_anio": 2026, "fm_severid": "ALTA", "ORIG_FID": null }, "geometry": { "type": "Point", "coordinates": [ -79.755674047145405, 0.78584048968432 ] } },
{ "type": "Feature", "properties": { "cod": "20260131_51D11_1936", "DPA_DESPRO": "AZUAY", "DPA_DESCAN": "CUENCA", "DPA_DESPAR": "MOLLETURO", "name": "PATRIMONIO FORESTAL NACIONAL", "delimitaci": "PFN", "fm_area": 10.62, "fm_cod": "2026-MAE-DB-SNMB-032", "fm_este": 653453, "fm_norte": 9687342, "fm_date1": "2025-07-19", "fm_date2": "2026-01-20", "Shape_Leng": null, "Shape_Area": null, "fm_monit": "2026-02-28", "fm_anio": 2026, "fm_severid": "ALTA", "ORIG_FID": null }, "geometry": { "type": "Point", "coordinates": [ -79.619417734781265, -2.827866652773469 ] } },
{ "type": "Feature", "properties": { "cod": "20260131_03C02_1021", "DPA_DESPRO": "ESMERALDAS", "DPA_DESCAN": "SAN LORENZO", "DPA_DESPAR": "MATAJE", "name": "PATRIMONIO FORESTAL NACIONAL", "delimitaci": "PFN", "fm_area": 10.13, "fm_cod": "2026-MAE-DB-SNMB-033", "fm_este": 762379, "fm_norte": 10137803, "fm_date1": "2025-03-18", "fm_date2": "2026-01-20", "Shape_Leng": null, "Shape_Area": null, "fm_monit": "2026-02-28", "fm_anio": 2026, "fm_severid": "ALTA", "ORIG_FID": null }, "geometry": { "type": "Point", "coordinates": [ -78.642186606282607, 1.245682644181523 ] } },
{ "type": "Feature", "properties": { "cod": "20260131_05A01_1001", "DPA_DESPRO": "ESMERALDAS", "DPA_DESCAN": "RIOVERDE", "DPA_DESPAR": "RIOVERDE", "name": "PATRIMONIO FORESTAL NACIONAL", "delimitaci": "PFN", "fm_area": 10.07, "fm_cod": "2026-MAE-DB-SNMB-034", "fm_este": 677097, "fm_norte": 10107841, "fm_date1": "2025-09-25", "fm_date2": "2025-12-11", "Shape_Leng": null, "Shape_Area": null, "fm_monit": "2026-02-28", "fm_anio": 2026, "fm_severid": "ALTA", "ORIG_FID": null }, "geometry": { "type": "Point", "coordinates": [ -79.408452474770769, 0.975295005364735 ] } },
{ "type": "Feature", "properties": { "cod": "20260131_02D16_1140", "DPA_DESPRO": "ESMERALDAS", "DPA_DESCAN": "ELOY ALFARO", "DPA_DESPAR": "TIMBIRÉ", "name": "PATRIMONIO FORESTAL NACIONAL", "delimitaci": "PFN", "fm_area": 8.27, "fm_cod": "2026-MAE-DB-SNMB-035", "fm_este": 740811, "fm_norte": 10112100, "fm_date1": "2025-03-18", "fm_date2": "2026-01-20", "Shape_Leng": null, "Shape_Area": null, "fm_monit": "2026-02-28", "fm_anio": 2026, "fm_severid": "ALTA", "ORIG_FID": null }, "geometry": { "type": "Point", "coordinates": [ -78.836075959573463, 1.013474186291731 ] } },
{ "type": "Feature", "properties": { "cod": "20260131_12A11_1022", "DPA_DESPRO": "MANABÍ", "DPA_DESCAN": "PEDERNALES", "DPA_DESPAR": "COJIMÍES", "name": "PATRIMONIO FORESTAL NACIONAL", "delimitaci": "PFN", "fm_area": 7.63, "fm_cod": "2026-MAE-DB-SNMB-036", "fm_este": 624641, "fm_norte": 10011327, "fm_date1": "2025-03-21", "fm_date2": "2025-12-06", "Shape_Leng": null, "Shape_Area": null, "fm_monit": "2026-02-28", "fm_anio": 2026, "fm_severid": "ALTA", "ORIG_FID": null }, "geometry": { "type": "Point", "coordinates": [ -79.879955252566816, 0.10246297381541 ] } },
{ "type": "Feature", "properties": { "cod": "AFECTACIÓN 3 MUERTEPUNGO", "DPA_DESPRO": "PICHINCHA", "DPA_DESCAN": "DISTRITO METROPOLITANO DE QUITO", "DPA_DESPAR": "PÍNTAG", "name": "PATRIMONIO FORESTAL NACIONAL", "delimitaci": "PFN", "fm_area": 24.49, "fm_cod": "2026-MAE-DB-SNMB-037", "fm_este": 795647, "fm_norte": 9951873, "fm_date1": "2013-01-01", "fm_date2": "2025-12-01", "Shape_Leng": null, "Shape_Area": null, "fm_monit": "2026-03-31", "fm_anio": 2026, "fm_severid": "ALTA", "ORIG_FID": null }, "geometry": { "type": "Point", "coordinates": [ -78.349029075021406, -0.426179831951178 ] } },
{ "type": "Feature", "properties": { "cod": "20260228_31A14_1626", "DPA_DESPRO": "MANABÍ", "DPA_DESCAN": "JIPIJAPA", "DPA_DESPAR": "JIPIJAPA", "name": "PATRIMONIO FORESTAL NACIONAL", "delimitaci": "PFN", "fm_area": 127.16, "fm_cod": "2026-MAE-DB-SNMB-038", "fm_este": 543272, "fm_norte": 9859648, "fm_date1": "2025-05-28", "fm_date2": "2026-02-22", "Shape_Leng": null, "Shape_Area": null, "fm_monit": "2026-03-31", "fm_anio": 2026, "fm_severid": "ALTA", "ORIG_FID": null }, "geometry": { "type": "Point", "coordinates": [ -80.610272710741668, -1.268866528121142 ] } },
{ "type": "Feature", "properties": { "cod": "20260228_31A06_1115", "DPA_DESPRO": "MANABÍ", "DPA_DESCAN": "MONTECRISTI", "DPA_DESPAR": "LA PILA", "name": "PATRIMONIO FORESTAL NACIONAL", "delimitaci": "PFN", "fm_area": 68.62, "fm_cod": "2026-MAE-DB-SNMB-039", "fm_este": 542014, "fm_norte": 9876762, "fm_date1": "2025-01-08", "fm_date2": "2026-01-05", "Shape_Leng": null, "Shape_Area": null, "fm_monit": "2026-03-31", "fm_anio": 2026, "fm_severid": "ALTA", "ORIG_FID": null }, "geometry": { "type": "Point", "coordinates": [ -80.622364620345067, -1.114950029397413 ] } },
{ "type": "Feature", "properties": { "cod": "20260228_05B08_1229", "DPA_DESPRO": "ESMERALDAS", "DPA_DESCAN": "ELOY ALFARO", "DPA_DESPAR": "ATAHUALPA", "name": "PATRIMONIO FORESTAL NACIONAL", "delimitaci": "PFN", "fm_area": 23.53, "fm_cod": "2026-MAE-DB-SNMB-040", "fm_este": 738556, "fm_norte": 10094736, "fm_date1": "2025-03-16", "fm_date2": "2025-12-11", "Shape_Leng": null, "Shape_Area": null, "fm_monit": "2026-03-31", "fm_anio": 2026, "fm_severid": "ALTA", "ORIG_FID": null }, "geometry": { "type": "Point", "coordinates": [ -78.856017704132725, 0.857029834636056 ] } },
{ "type": "Feature", "properties": { "cod": "20260228_21B15_1039", "DPA_DESPRO": "MANABÍ", "DPA_DESCAN": "CHONE", "DPA_DESPAR": "BOYACÁ", "name": "PATRIMONIO FORESTAL NACIONAL", "delimitaci": "PFN", "fm_area": 20.26, "fm_cod": "2026-MAE-DB-SNMB-041", "fm_este": 583737, "fm_norte": 9934066, "fm_date1": "2025-03-24", "fm_date2": "2025-12-26", "Shape_Leng": null, "Shape_Area": null, "fm_monit": "2026-03-31", "fm_anio": 2026, "fm_severid": "ALTA", "ORIG_FID": null }, "geometry": { "type": "Point", "coordinates": [ -80.246155864575741, -0.596435419581896 ] } },
{ "type": "Feature", "properties": { "cod": "20260228_04A08_1259", "DPA_DESPRO": "ESMERALDAS", "DPA_DESCAN": "ATACAMES", "DPA_DESPAR": "ATACAMES", "name": "PATRIMONIO FORESTAL NACIONAL", "delimitaci": "PFN", "fm_area": 14.67, "fm_cod": "2026-MAE-DB-SNMB-042", "fm_este": 630541, "fm_norte": 10090100, "fm_date1": "2025-03-24", "fm_date2": "2026-03-09", "Shape_Leng": null, "Shape_Area": null, "fm_monit": "2026-03-31", "fm_anio": 2026, "fm_severid": "ALTA", "ORIG_FID": null }, "geometry": { "type": "Point", "coordinates": [ -79.826821199680069, 0.814986909168185 ] } },
{ "type": "Feature", "properties": { "cod": "20260228_05A14_1321", "DPA_DESPRO": "ESMERALDAS", "DPA_DESCAN": "RIOVERDE", "DPA_DESPAR": "CHUMUNDÉ", "name": "PATRIMONIO FORESTAL NACIONAL", "delimitaci": "PFN", "fm_area": 12.25, "fm_cod": "2026-MAE-DB-SNMB-043", "fm_este": 681881, "fm_norte": 10077349, "fm_date1": "2025-03-24", "fm_date2": "2026-01-28", "Shape_Leng": null, "Shape_Area": null, "fm_monit": "2026-03-31", "fm_anio": 2026, "fm_severid": "ALTA", "ORIG_FID": null }, "geometry": { "type": "Point", "coordinates": [ -79.365122052611824, 0.699128998912448 ] } },
{ "type": "Feature", "properties": { "cod": "20260228_63C04_1247", "DPA_DESPRO": "LOJA", "DPA_DESCAN": "PALTAS", "DPA_DESPAR": "GUACHANAMÁ", "name": "PATRIMONIO FORESTAL NACIONAL", "delimitaci": "PFN", "fm_area": 12.1, "fm_cod": "2026-MAE-DB-SNMB-044", "fm_este": 632844, "fm_norte": 9553073, "fm_date1": "2024-03-16", "fm_date2": "2026-01-05", "Shape_Leng": null, "Shape_Area": null, "fm_monit": "2026-03-31", "fm_anio": 2026, "fm_severid": "ALTA", "ORIG_FID": null }, "geometry": { "type": "Point", "coordinates": [ -79.803294835898868, -4.042537891478028 ] } },
{ "type": "Feature", "properties": { "cod": "20260228_30B08_1149", "DPA_DESPRO": "MANABÍ", "DPA_DESCAN": "MONTECRISTI", "DPA_DESPAR": "MONTECRISTI", "name": "PATRIMONIO FORESTAL NACIONAL", "delimitaci": "PFN", "fm_area": 11.07, "fm_cod": "2026-MAE-DB-SNMB-045", "fm_este": 523080, "fm_norte": 9872725, "fm_date1": "2025-03-24", "fm_date2": "2026-02-12", "Shape_Leng": null, "Shape_Area": null, "fm_monit": "2026-03-31", "fm_anio": 2026, "fm_severid": "ALTA", "ORIG_FID": null }, "geometry": { "type": "Point", "coordinates": [ -80.791132111502606, -1.151245055563231 ] } },
{ "type": "Feature", "properties": { "cod": "20260228_42C05_1059", "DPA_DESPRO": "GUAYAS", "DPA_DESCAN": "GUAYAQUIL", "DPA_DESPAR": "GUAYAQUIL", "name": "CERRO BLANCO", "delimitaci": "BVP", "fm_area": 8.11, "fm_cod": "2026-MAE-DB-SNMB-046", "fm_este": 600888, "fm_norte": 9763746, "fm_date1": "2025-06-27", "fm_date2": "2026-02-12", "Shape_Leng": null, "Shape_Area": null, "fm_monit": "2026-03-31", "fm_anio": 2026, "fm_severid": "ALTA", "ORIG_FID": null }, "geometry": { "type": "Point", "coordinates": [ -80.092757952354873, -2.137187977029379 ] } },
{ "type": "Feature", "properties": { "cod": "20260331_18A16_1035", "DPA_DESPRO": "SUCUMBÍOS", "DPA_DESCAN": "PUTUMAYO", "DPA_DESPAR": "PUERTO EL CARMEN DE PUTUMAYO", "name": "UNIDAD 6 NAPO", "delimitaci": "PFE", "fm_area": 73.08, "fm_cod": "2026-MAE-DB-SNMB-047", "fm_este": 1069913, "fm_norte": 10002096, "fm_date1": "2025-08-30", "fm_date2": "2026-02-06", "Shape_Leng": null, "Shape_Area": null, "fm_monit": "2026-04-30", "fm_anio": 2026, "fm_severid": "ALTA", "ORIG_FID": null }, "geometry": { "type": "Point", "coordinates": [ -75.885192834080883, 0.018890928578368 ] } },
{ "type": "Feature", "properties": { "cod": "20260331_26D01_1058", "DPA_DESPRO": "ORELLANA", "DPA_DESCAN": "FRANCISCO DE ORELLANA", "DPA_DESPAR": "LA BELLEZA", "name": "PATRIMONIO FORESTAL NACIONAL", "delimitaci": "PFN", "fm_area": 50.89, "fm_cod": "2026-MAE-DB-SNMB-048", "fm_este": 934132, "fm_norte": 9923921, "fm_date1": "2025-11-20", "fm_date2": "2026-03-28", "Shape_Leng": null, "Shape_Area": null, "fm_monit": "2026-04-30", "fm_anio": 2026, "fm_severid": "ALTA", "ORIG_FID": null }, "geometry": { "type": "Point", "coordinates": [ -77.101315997530548, -0.686706659772769 ] } },
{ "type": "Feature", "properties": { "cod": "20260331_09D16_1141", "DPA_DESPRO": "SUCUMBÍOS", "DPA_DESCAN": "PUTUMAYO", "DPA_DESPAR": "SANTA ELENA", "name": "PATRIMONIO FORESTAL NACIONAL", "delimitaci": "PFN", "fm_area": 23.11, "fm_cod": "2026-MAE-DB-SNMB-049", "fm_este": 1032071, "fm_norte": 10036117, "fm_date1": "2025-08-30", "fm_date2": "2026-02-11", "Shape_Leng": null, "Shape_Area": null, "fm_monit": "2026-04-30", "fm_anio": 2026, "fm_severid": "ALTA", "ORIG_FID": null }, "geometry": { "type": "Point", "coordinates": [ -76.223913243069703, 0.325616571960073 ] } },
{ "type": "Feature", "properties": { "cod": "20260331_18A16_1029", "DPA_DESPRO": "SUCUMBÍOS", "DPA_DESCAN": "PUTUMAYO", "DPA_DESPAR": "PUERTO EL CARMEN DE PUTUMAYO", "name": "UNIDAD 6 NAPO", "delimitaci": "PFE", "fm_area": 22.13, "fm_cod": "2026-MAE-DB-SNMB-050", "fm_este": 1070411, "fm_norte": 10003373, "fm_date1": "2025-08-30", "fm_date2": "2026-02-06", "Shape_Leng": null, "Shape_Area": null, "fm_monit": "2026-04-30", "fm_anio": 2026, "fm_severid": "ALTA", "ORIG_FID": null }, "geometry": { "type": "Point", "coordinates": [ -75.880726831600768, 0.030398104478729 ] } },
{ "type": "Feature", "properties": { "cod": "20260331_17B08_1019", "DPA_DESPRO": "SUCUMBÍOS", "DPA_DESCAN": "PUTUMAYO", "DPA_DESPAR": "SANSAHUARI", "name": "UNIDAD 5 NAPO", "delimitaci": "PFE", "fm_area": 21.46, "fm_cod": "2026-MAE-DB-SNMB-051", "fm_este": 1027013, "fm_norte": 10019520, "fm_date1": "2025-09-21", "fm_date2": "2026-02-06", "Shape_Leng": null, "Shape_Area": null, "fm_monit": "2026-04-30", "fm_anio": 2026, "fm_severid": "ALTA", "ORIG_FID": null }, "geometry": { "type": "Point", "coordinates": [ -76.269269492796994, 0.175996355326626 ] } },
{ "type": "Feature", "properties": { "cod": "20260331_05A14_1049", "DPA_DESPRO": "ESMERALDAS", "DPA_DESCAN": "RIOVERDE", "DPA_DESPAR": "CHUMUNDÉ", "name": "PATRIMONIO FORESTAL NACIONAL", "delimitaci": "PFN", "fm_area": 19.86, "fm_cod": "2026-MAE-DB-SNMB-052", "fm_este": 689217, "fm_norte": 10073718, "fm_date1": "2025-03-28", "fm_date2": "2026-03-31", "Shape_Leng": null, "Shape_Area": null, "fm_monit": "2026-04-30", "fm_anio": 2026, "fm_severid": "ALTA", "ORIG_FID": null }, "geometry": { "type": "Point", "coordinates": [ -79.299901021484075, 0.666200570602055 ] } },
{ "type": "Feature", "properties": { "cod": "20260331_18A10_1015", "DPA_DESPRO": "SUCUMBÍOS", "DPA_DESCAN": "PUTUMAYO", "DPA_DESPAR": "PALMA ROJA", "name": "PATRIMONIO FORESTAL NACIONAL", "delimitaci": "PFN", "fm_area": 19.8, "fm_cod": "2026-MAE-DB-SNMB-053", "fm_este": 1051042, "fm_norte": 10015281, "fm_date1": "2025-09-21", "fm_date2": "2026-02-06", "Shape_Leng": null, "Shape_Area": null, "fm_monit": "2026-04-30", "fm_anio": 2026, "fm_severid": "ALTA", "ORIG_FID": null }, "geometry": { "type": "Point", "coordinates": [ -76.054102482937083, 0.137738186308111 ] } },
{ "type": "Feature", "properties": { "cod": "20260331_31A01_1005", "DPA_DESPRO": "MANABÍ", "DPA_DESCAN": "MONTECRISTI", "DPA_DESPAR": "MONTECRISTI", "name": "PATRIMONIO FORESTAL NACIONAL", "delimitaci": "PFN", "fm_area": 17.69, "fm_cod": "2026-MAE-DB-SNMB-054", "fm_este": 531209, "fm_norte": 9881001, "fm_date1": "2025-05-13", "fm_date2": "2026-02-17", "Shape_Leng": null, "Shape_Area": null, "fm_monit": "2026-04-30", "fm_anio": 2026, "fm_severid": "ALTA", "ORIG_FID": null }, "geometry": { "type": "Point", "coordinates": [ -80.719487483638204, -1.076604479259018 ] } },
{ "type": "Feature", "properties": { "cod": "20260331_06A02_1020", "DPA_DESPRO": "ESMERALDAS", "DPA_DESCAN": "SAN LORENZO", "DPA_DESPAR": "ALTO TAMBO", "name": "PATRIMONIO FORESTAL NACIONAL", "delimitaci": "PFN", "fm_area": 17.58, "fm_cod": "2026-MAE-DB-SNMB-055", "fm_este": 760528, "fm_norte": 10104569, "fm_date1": "2025-03-18", "fm_date2": "2026-03-16", "Shape_Leng": null, "Shape_Area": null, "fm_monit": "2026-04-30", "fm_anio": 2026, "fm_severid": "ALTA", "ORIG_FID": null }, "geometry": { "type": "Point", "coordinates": [ -78.657466995907811, 0.943364103731209 ] } },
{ "type": "Feature", "properties": { "cod": "20260331_09D14_1009", "DPA_DESPRO": "SUCUMBÍOS", "DPA_DESCAN": "PUTUMAYO", "DPA_DESPAR": "SANTA ELENA", "name": "PATRIMONIO FORESTAL NACIONAL", "delimitaci": "PFN", "fm_area": 17.49, "fm_cod": "2026-MAE-DB-SNMB-056", "fm_este": 1014822, "fm_norte": 10041887, "fm_date1": "2025-09-21", "fm_date2": "2026-02-06", "Shape_Leng": null, "Shape_Area": null, "fm_monit": "2026-04-30", "fm_anio": 2026, "fm_severid": "ALTA", "ORIG_FID": null }, "geometry": { "type": "Point", "coordinates": [ -76.378376093875431, 0.377721471101715 ] } },
{ "type": "Feature", "properties": { "cod": "20260331_12A03_1007", "DPA_DESPRO": "MANABÍ", "DPA_DESCAN": "PEDERNALES", "DPA_DESPAR": "COJIMÍES", "name": "MACHE CHINDUL", "delimitaci": "SNAP", "fm_area": 16.01, "fm_cod": "2026-MAE-DB-SNMB-057", "fm_este": 624057, "fm_norte": 10029868, "fm_date1": "2025-03-31", "fm_date2": "2026-03-19", "Shape_Leng": null, "Shape_Area": null, "fm_monit": "2026-04-30", "fm_anio": 2026, "fm_severid": "ALTA", "ORIG_FID": null }, "geometry": { "type": "Point", "coordinates": [ -79.883748194723708, 0.2706733851004 ] } },
{ "type": "Feature", "properties": { "cod": "20260331_10C13_1041", "DPA_DESPRO": "SUCUMBÍOS", "DPA_DESCAN": "PUTUMAYO", "DPA_DESPAR": "SANTA ELENA", "name": "PATRIMONIO FORESTAL NACIONAL", "delimitaci": "PFN", "fm_area": 15.5, "fm_cod": "2026-MAE-DB-SNMB-058", "fm_este": 1039059, "fm_norte": 10041307, "fm_date1": "2025-09-21", "fm_date2": "2026-02-01", "Shape_Leng": null, "Shape_Area": null, "fm_monit": "2026-04-30", "fm_anio": 2026, "fm_severid": "ALTA", "ORIG_FID": null }, "geometry": { "type": "Point", "coordinates": [ -76.161311633065196, 0.372377209512813 ] } },
{ "type": "Feature", "properties": { "cod": "20260331_50B04_1003", "DPA_DESPRO": "GUAYAS", "DPA_DESCAN": "GUAYAQUIL", "DPA_DESPAR": "GUAYAQUIL", "name": "PATRIMONIO FORESTAL NACIONAL", "delimitaci": "PFN", "fm_area": 15.26, "fm_cod": "2026-MAE-DB-SNMB-059", "fm_este": 589636, "fm_norte": 9739128, "fm_date1": "2025-11-14", "fm_date2": "2026-04-03", "Shape_Leng": null, "Shape_Area": null, "fm_monit": "2026-04-30", "fm_anio": 2026, "fm_severid": "ALTA", "ORIG_FID": null }, "geometry": { "type": "Point", "coordinates": [ -80.193808304790295, -2.359939354432135 ] } },
{ "type": "Feature", "properties": { "cod": "20260331_51A05_1045", "DPA_DESPRO": "GUAYAS", "DPA_DESCAN": "GUAYAQUIL", "DPA_DESPAR": "GUAYAQUIL", "name": "PATRIMONIO FORESTAL NACIONAL", "delimitaci": "PFN", "fm_area": 12.91, "fm_cod": "2026-MAE-DB-SNMB-060", "fm_este": 600502, "fm_norte": 9731194, "fm_date1": "2026-01-03", "fm_date2": "2026-03-31", "Shape_Leng": null, "Shape_Area": null, "fm_monit": "2026-04-30", "fm_anio": 2026, "fm_severid": "ALTA", "ORIG_FID": null }, "geometry": { "type": "Point", "coordinates": [ -80.096039404188545, -2.431657368130805 ] } },
{ "type": "Feature", "properties": { "cod": "20260331_10C13_1049", "DPA_DESPRO": "SUCUMBÍOS", "DPA_DESCAN": "PUTUMAYO", "DPA_DESPAR": "SANTA ELENA", "name": "PATRIMONIO FORESTAL NACIONAL", "delimitaci": "PFN", "fm_area": 12.38, "fm_cod": "2026-MAE-DB-SNMB-061", "fm_este": 1037645, "fm_norte": 10040437, "fm_date1": "2025-09-21", "fm_date2": "2026-02-01", "Shape_Leng": null, "Shape_Area": null, "fm_monit": "2026-04-30", "fm_anio": 2026, "fm_severid": "ALTA", "ORIG_FID": null }, "geometry": { "type": "Point", "coordinates": [ -76.173974848488371, 0.364539237613586 ] } },
{ "type": "Feature", "properties": { "cod": "20260331_02D16_1072", "DPA_DESPRO": "ESMERALDAS", "DPA_DESCAN": "SAN LORENZO", "DPA_DESPAR": "CONCEPCIÓN", "name": "PATRIMONIO FORESTAL NACIONAL", "delimitaci": "PFN", "fm_area": 10.72, "fm_cod": "2026-MAE-DB-SNMB-062", "fm_este": 743788, "fm_norte": 10111956, "fm_date1": "2026-01-20", "fm_date2": "2026-03-16", "Shape_Leng": null, "Shape_Area": null, "fm_monit": "2026-04-30", "fm_anio": 2026, "fm_severid": "ALTA", "ORIG_FID": null }, "geometry": { "type": "Point", "coordinates": [ -78.810626604972256, 1.011103539709495 ] } },
{ "type": "Feature", "properties": { "cod": "20260331_58B09_1082", "DPA_DESPRO": "EL ORO", "DPA_DESCAN": "EL GUABO", "DPA_DESPAR": "EL GUABO", "name": "PATRIMONIO FORESTAL NACIONAL", "delimitaci": "PFN", "fm_area": 9.92, "fm_cod": "2026-MAE-DB-SNMB-063", "fm_este": 637340, "fm_norte": 9648326, "fm_date1": "2025-03-16", "fm_date2": "2026-03-01", "Shape_Leng": null, "Shape_Area": null, "fm_monit": "2026-04-30", "fm_anio": 2026, "fm_severid": "ALTA", "ORIG_FID": null }, "geometry": { "type": "Point", "coordinates": [ -79.763965279568865, -3.180924458386005 ] } },
{ "type": "Feature", "properties": { "cod": "20260331_10C13_1086", "DPA_DESPRO": "SUCUMBÍOS", "DPA_DESCAN": "PUTUMAYO", "DPA_DESPAR": "SANTA ELENA", "name": "PATRIMONIO FORESTAL NACIONAL", "delimitaci": "PFN", "fm_area": 9.21, "fm_cod": "2026-MAE-DB-SNMB-064", "fm_este": 1041955, "fm_norte": 10038315, "fm_date1": "2025-09-21", "fm_date2": "2026-02-01", "Shape_Leng": null, "Shape_Area": null, "fm_monit": "2026-04-30", "fm_anio": 2026, "fm_severid": "ALTA", "ORIG_FID": null }, "geometry": { "type": "Point", "coordinates": [ -76.135390118150355, 0.345393056431637 ] } },
{ "type": "Feature", "properties": { "cod": "20260331_05B02_1008", "DPA_DESPRO": "ESMERALDAS", "DPA_DESCAN": "ELOY ALFARO", "DPA_DESPAR": "BORBÓN", "name": "PATRIMONIO FORESTAL NACIONAL", "delimitaci": "PFN", "fm_area": 8.05, "fm_cod": "2026-MAE-DB-SNMB-065", "fm_este": 724442, "fm_norte": 10104081, "fm_date1": "2025-11-06", "fm_date2": "2026-02-19", "Shape_Leng": null, "Shape_Area": null, "fm_monit": "2026-04-30", "fm_anio": 2026, "fm_severid": "ALTA", "ORIG_FID": null }, "geometry": { "type": "Point", "coordinates": [ -78.983149032929489, 0.94106890907971 ] } },
{ "type": "Feature", "properties": { "cod": "20260430_05B03_1012", "DPA_DESPRO": "ESMERALDAS", "DPA_DESCAN": "ELOY ALFARO", "DPA_DESPAR": "SAN JOSÉ DE CAYAPAS", "name": "PATRIMONIO FORESTAL NACIONAL", "delimitaci": "PFN", "fm_area": 51.841, "fm_cod": "2026-MAE-DB-SNMB-066", "fm_este": 728085, "fm_norte": 10107514, "fm_date1": "2025-03-18", "fm_date2": "2026-02-19", "Shape_Leng": null, "Shape_Area": null, "fm_monit": "2026-05-30", "fm_anio": 2026, "fm_severid": "ALTA", "ORIG_FID": null }, "geometry": { "type": "Point", "coordinates": [ -78.949845751074676, 0.971980294206253 ] } },
{ "type": "Feature", "properties": { "cod": "20260430_42A14_1001", "DPA_DESPRO": "GUAYAS", "DPA_DESCAN": "DAULE", "DPA_DESPAR": "LOS LOJAS", "name": "PATRIMONIO FORESTAL NACIONAL", "delimitaci": "PFN", "fm_area": 39.42, "fm_cod": "2026-MAE-DB-SNMB-067", "fm_este": 616532, "fm_norte": 9780346, "fm_date1": "2025-12-26", "fm_date2": "2026-04-23", "Shape_Leng": null, "Shape_Area": null, "fm_monit": "2026-05-30", "fm_anio": 2026, "fm_severid": "ALTA", "ORIG_FID": null }, "geometry": { "type": "Point", "coordinates": [ -79.952190827712343, -1.986932648301264 ] } },
{ "type": "Feature", "properties": { "cod": "20260430_05B03_1003", "DPA_DESPRO": "ESMERALDAS", "DPA_DESCAN": "ELOY ALFARO", "DPA_DESPAR": "BORBÓN", "name": "PATRIMONIO FORESTAL NACIONAL", "delimitaci": "PFN", "fm_area": 19.843, "fm_cod": "2026-MAE-DB-SNMB-068", "fm_este": 729618, "fm_norte": 10106212, "fm_date1": "2025-03-18", "fm_date2": "2026-02-19", "Shape_Leng": null, "Shape_Area": null, "fm_monit": "2026-05-30", "fm_anio": 2026, "fm_severid": "ALTA", "ORIG_FID": null }, "geometry": { "type": "Point", "coordinates": [ -78.936425402428171, 0.959311821309709 ] } },
{ "type": "Feature", "properties": { "cod": "20260430_12A04_1002", "DPA_DESPRO": "MANABÍ", "DPA_DESCAN": "PEDERNALES", "DPA_DESPAR": "COJIMÍES", "name": "MACHE CHINDUL", "delimitaci": "SNAP", "fm_area": 19.661, "fm_cod": "2026-MAE-DB-SNMB-069", "fm_este": 627032, "fm_norte": 10034867, "fm_date1": "2025-09-25", "fm_date2": "2026-04-08", "Shape_Leng": null, "Shape_Area": null, "fm_monit": "2026-05-30", "fm_anio": 2026, "fm_severid": "ALTA", "ORIG_FID": null }, "geometry": { "type": "Point", "coordinates": [ -79.85864139132363, 0.315180807416532 ] } },
{ "type": "Feature", "properties": { "cod": "20260430_06A05_1069", "DPA_DESPRO": "ESMERALDAS", "DPA_DESCAN": "SAN LORENZO", "DPA_DESPAR": "5 DE JUNIO", "name": "MAE-PSB-I-2008-C-002", "delimitaci": "ABC-PSB", "fm_area": 19.279, "fm_cod": "2026-MAE-DB-SNMB-070", "fm_este": 749915, "fm_norte": 10095958, "fm_date1": "0000-00-00", "fm_date2": "2026-04-20", "Shape_Leng": null, "Shape_Area": null, "fm_monit": "2026-05-30", "fm_anio": 2026, "fm_severid": "ALTA", "ORIG_FID": null }, "geometry": { "type": "Point", "coordinates": [ -78.754402842701026, 0.867493595697607 ] } },
{ "type": "Feature", "properties": { "cod": "20260430_12A07_1039", "DPA_DESPRO": "MANABÍ", "DPA_DESCAN": "PEDERNALES", "DPA_DESPAR": "COJIMÍES", "name": "PATRIMONIO FORESTAL NACIONAL", "delimitaci": "PFN", "fm_area": 12.917, "fm_cod": "2026-MAE-DB-SNMB-071", "fm_este": 625195, "fm_norte": 10018561, "fm_date1": "2025-09-25", "fm_date2": "2026-02-22", "Shape_Leng": null, "Shape_Area": null, "fm_monit": "2026-05-30", "fm_anio": 2026, "fm_severid": "ALTA", "ORIG_FID": null }, "geometry": { "type": "Point", "coordinates": [ -79.873895419130449, 0.167569941553907 ] } },
{ "type": "Feature", "properties": { "cod": "20260430_05D16_1091", "DPA_DESPRO": "IMBABURA", "DPA_DESCAN": "COTACACHI", "DPA_DESPAR": "GARCÍA MORENO", "name": "COTACACHI CAYAPAS", "delimitaci": "SNAP", "fm_area": 12.915, "fm_cod": "2026-MAE-DB-SNMB-072", "fm_este": 740547, "fm_norte": 10043828, "fm_date1": "2025-12-11", "fm_date2": "2026-03-16", "Shape_Leng": null, "Shape_Area": null, "fm_monit": "2026-05-30", "fm_anio": 2026, "fm_severid": "ALTA", "ORIG_FID": null }, "geometry": { "type": "Point", "coordinates": [ -78.840385471152672, 0.393018555242634 ] } },
{ "type": "Feature", "properties": { "cod": "20260430_12D10_1055", "DPA_DESPRO": "MANABÍ", "DPA_DESCAN": "FLAVIO ALFARO", "DPA_DESPAR": "FLAVIO ALFARO", "name": "PATRIMONIO FORESTAL NACIONAL", "delimitaci": "PFN", "fm_area": 11.525, "fm_cod": "2026-MAE-DB-SNMB-073", "fm_este": 648269, "fm_norte": 9976907, "fm_date1": "2025-08-31", "fm_date2": "2026-02-27", "Shape_Leng": null, "Shape_Area": null, "fm_monit": "2026-05-30", "fm_anio": 2026, "fm_severid": "ALTA", "ORIG_FID": null }, "geometry": { "type": "Point", "coordinates": [ -79.666736755026776, -0.208507002813146 ] } },
{ "type": "Feature", "properties": { "cod": "20260430_02C16_1216", "DPA_DESPRO": "ESMERALDAS", "DPA_DESCAN": "RIOVERDE", "DPA_DESPAR": "LAGARTO", "name": "PATRIMONIO FORESTAL NACIONAL", "delimitaci": "PFN", "fm_area": 9.891, "fm_cod": "2026-MAE-DB-SNMB-074", "fm_este": 706469, "fm_norte": 10109110, "fm_date1": "2025-12-11", "fm_date2": "0000-00-00", "Shape_Leng": null, "Shape_Area": null, "fm_monit": "2026-05-30", "fm_anio": 2026, "fm_severid": "ALTA", "ORIG_FID": null }, "geometry": { "type": "Point", "coordinates": [ -79.144572505431057, 0.986631095471048 ] } },
{ "type": "Feature", "properties": { "cod": "20260430_05B03_1011", "DPA_DESPRO": "ESMERALDAS", "DPA_DESCAN": "ELOY ALFARO", "DPA_DESPAR": "SAN JOSÉ DE CAYAPAS", "name": "PATRIMONIO FORESTAL NACIONAL", "delimitaci": "PFN", "fm_area": 9.793, "fm_cod": "2026-MAE-DB-SNMB-075", "fm_este": 730830, "fm_norte": 10101048, "fm_date1": "2025-12-11", "fm_date2": "2026-04-20", "Shape_Leng": null, "Shape_Area": null, "fm_monit": "2026-05-30", "fm_anio": 2026, "fm_severid": "ALTA", "ORIG_FID": null }, "geometry": { "type": "Point", "coordinates": [ -78.926127907945883, 0.91367874344985 ] } },
{ "type": "Feature", "properties": { "cod": "20260430_04C10_1087", "DPA_DESPRO": "ESMERALDAS", "DPA_DESCAN": "MUISNE", "DPA_DESPAR": "SAN GREGORIO", "name": "PATRIMONIO FORESTAL NACIONAL", "delimitaci": "PFN", "fm_area": 9.321, "fm_cod": "2026-MAE-DB-SNMB-076", "fm_este": 615420, "fm_norte": 10051432, "fm_date1": "2025-03-24", "fm_date2": "2026-05-03", "Shape_Leng": null, "Shape_Area": null, "fm_monit": "2026-05-30", "fm_anio": 2026, "fm_severid": "ALTA", "ORIG_FID": null }, "geometry": { "type": "Point", "coordinates": [ -79.962772275673217, 0.465242667032178 ] } },
{ "type": "Feature", "properties": { "cod": "20260430_03C02_1058", "DPA_DESPRO": "ESMERALDAS", "DPA_DESCAN": "SAN LORENZO", "DPA_DESPAR": "MATAJE", "name": "BLOQUE 13 ESMERALDAS", "delimitaci": "PFE", "fm_area": 8.161, "fm_cod": "2026-MAE-DB-SNMB-077", "fm_este": 760407, "fm_norte": 10136158, "fm_date1": "2026-01-20", "fm_date2": "0000-00-00", "Shape_Leng": null, "Shape_Area": null, "fm_monit": "2026-05-30", "fm_anio": 2026, "fm_severid": "ALTA", "ORIG_FID": null }, "geometry": { "type": "Point", "coordinates": [ -78.659905360857508, 1.230829495718719 ] } },
{ "type": "Feature", "properties": { "cod": "20260531_41D09_1033", "DPA_DESPRO": "SANTA ELENA", "DPA_DESCAN": "SANTA ELENA", "DPA_DESPAR": "SIMÓN BOLÍVAR", "name": "PATRIMONIO FORESTAL NACIONAL", "delimitaci": "PFN", "fm_area": 81.311, "fm_cod": "2026-MAE-DB-SNMB-078", "fm_este": 563378, "fm_norte": 9758337, "fm_date1": "2026-03-29", "fm_date2": "2026-04-28", "Shape_Leng": null, "Shape_Area": null, "fm_monit": "2026-06-30", "fm_anio": 2026, "fm_severid": "ALTA", "ORIG_FID": null }, "geometry": { "type": "Point", "coordinates": [ -80.430034902594073, -2.186284260788606 ] } },
{ "type": "Feature", "properties": { "cod": "20260531_50B10_1224", "DPA_DESPRO": "GUAYAS", "DPA_DESCAN": "GUAYAQUIL", "DPA_DESPAR": "MORRO", "name": "PATRIMONIO FORESTAL NACIONAL", "delimitaci": "PFN", "fm_area": 31.503, "fm_cod": "2026-MAE-DB-SNMB-079", "fm_este": 578522, "fm_norte": 9719753, "fm_date1": "2026-01-05", "fm_date2": "2026-04-03", "Shape_Leng": null, "Shape_Area": null, "fm_monit": "2026-06-30", "fm_anio": 2026, "fm_severid": "ALTA", "ORIG_FID": null }, "geometry": { "type": "Point", "coordinates": [ -80.293676366626855, -2.535276384700059 ] } },
{ "type": "Feature", "properties": { "cod": "20260531_04C02_1080", "DPA_DESPRO": "ESMERALDAS", "DPA_DESCAN": "MUISNE", "DPA_DESPAR": "MUISNE", "name": "BLOQUE 2 ESMERALDAS", "delimitaci": "PFE", "fm_area": 31.348, "fm_cod": "2026-MAE-DB-SNMB-080", "fm_este": 611911, "fm_norte": 10069336, "fm_date1": "2025-12-26", "fm_date2": "2026-05-03", "Shape_Leng": null, "Shape_Area": null, "fm_monit": "2026-06-30", "fm_anio": 2026, "fm_severid": "ALTA", "ORIG_FID": null }, "geometry": { "type": "Point", "coordinates": [ -79.994277029141827, 0.627204056518675 ] } },
{ "type": "Feature", "properties": { "cod": "20260531_50B01_1081", "DPA_DESPRO": "GUAYAS", "DPA_DESCAN": "GUAYAQUIL", "DPA_DESPAR": "JUAN GÓMEZ RENDÓN", "name": "PATRIMONIO FORESTAL NACIONAL", "delimitaci": "PFN", "fm_area": 25.246, "fm_cod": "2026-MAE-DB-SNMB-081", "fm_este": 563103, "fm_norte": 9734866, "fm_date1": "2026-01-05", "fm_date2": "2026-04-03", "Shape_Leng": null, "Shape_Area": null, "fm_monit": "2026-06-30", "fm_anio": 2026, "fm_severid": "ALTA", "ORIG_FID": null }, "geometry": { "type": "Point", "coordinates": [ -80.432422955783963, -2.398617679701782 ] } },
{ "type": "Feature", "properties": { "cod": "20260531_06A02_1056", "DPA_DESPRO": "ESMERALDAS", "DPA_DESCAN": "SAN LORENZO", "DPA_DESPAR": "5 DE JUNIO", "name": "PATRIMONIO FORESTAL NACIONAL", "delimitaci": "PFN", "fm_area": 17.579, "fm_cod": "2026-MAE-DB-SNMB-082", "fm_este": 756412, "fm_norte": 10101009, "fm_date1": "2026-01-20", "fm_date2": "2026-05-12", "Shape_Leng": null, "Shape_Area": null, "fm_monit": "2026-06-30", "fm_anio": 2026, "fm_severid": "ALTA", "ORIG_FID": null }, "geometry": { "type": "Point", "coordinates": [ -78.698188580519101, 0.915604230051939 ] } },
{ "type": "Feature", "properties": { "cod": "20260531_58C10_1082", "DPA_DESPRO": "EL ORO", "DPA_DESCAN": "SANTA ROSA", "DPA_DESPAR": "SAN ANTONIO", "name": "PATRIMONIO FORESTAL NACIONAL", "delimitaci": "PFN", "fm_area": 14.954, "fm_cod": "2026-MAE-DB-SNMB-083", "fm_este": 611837, "fm_norte": 9607374, "fm_date1": "2026-03-01", "fm_date2": "2026-04-20", "Shape_Leng": null, "Shape_Area": null, "fm_monit": "2026-06-30", "fm_anio": 2026, "fm_severid": "ALTA", "ORIG_FID": null }, "geometry": { "type": "Point", "coordinates": [ -79.992757499356827, -3.55141486938127 ] } },
{ "type": "Feature", "properties": { "cod": "20260531_17D02_1034", "DPA_DESPRO": "SUCUMBÍOS", "DPA_DESCAN": "CUYABENO", "DPA_DESPAR": "TARAPOA", "name": "CUYABENO", "delimitaci": "SNAP", "fm_area": 14.121, "fm_cod": "2026-MAE-DB-SNMB-084", "fm_este": 1013635, "fm_norte": 9992536, "fm_date1": "2026-02-01", "fm_date2": "2026-04-01", "Shape_Leng": null, "Shape_Area": null, "fm_monit": "2026-06-30", "fm_anio": 2026, "fm_severid": "ALTA", "ORIG_FID": null }, "geometry": { "type": "Point", "coordinates": [ -76.389109345563412, -0.067306352559586 ] } },
{ "type": "Feature", "properties": { "cod": "20260531_04C10_1107", "DPA_DESPRO": "ESMERALDAS", "DPA_DESCAN": "MUISNE", "DPA_DESPAR": "SAN GREGORIO", "name": "PATRIMONIO FORESTAL NACIONAL", "delimitaci": "PFN", "fm_area": 9.972, "fm_cod": "2026-MAE-DB-SNMB-085", "fm_este": 616564, "fm_norte": 10048370, "fm_date1": "2026-01-05", "fm_date2": "2026-05-03", "Shape_Leng": null, "Shape_Area": null, "fm_monit": "2026-06-30", "fm_anio": 2026, "fm_severid": "ALTA", "ORIG_FID": null }, "geometry": { "type": "Point", "coordinates": [ -79.952499639944918, 0.43754077750386 ] } },
{ "type": "Feature", "properties": { "cod": "20260531_58D01_1080", "DPA_DESPRO": "EL ORO", "DPA_DESCAN": "PASAJE", "DPA_DESPAR": "CASACAY", "name": "PATRIMONIO FORESTAL NACIONAL", "delimitaci": "PFN", "fm_area": 9.391, "fm_cod": "2026-MAE-DB-SNMB-086", "fm_este": 639632, "fm_norte": 9630715, "fm_date1": "2025-04-07", "fm_date2": "2026-05-05", "Shape_Leng": null, "Shape_Area": null, "fm_monit": "2026-06-30", "fm_anio": 2026, "fm_severid": "ALTA", "ORIG_FID": null }, "geometry": { "type": "Point", "coordinates": [ -79.743144300127042, -3.340190608733804 ] } },
{ "type": "Feature", "properties": { "cod": "20260531_46C13_1020", "DPA_DESPRO": "MORONA SANTIAGO", "DPA_DESCAN": "TAISHA", "DPA_DESPAR": "TAISHA", "name": "PATRIMONIO FORESTAL NACIONAL", "delimitaci": "PFN", "fm_area": 6.772, "fm_cod": "2026-MAE-DB-SNMB-087", "fm_este": 890628, "fm_norte": 9748568, "fm_date1": "0000-00-00", "fm_date2": "2026-04-11", "Shape_Leng": null, "Shape_Area": null, "fm_monit": "2026-06-30", "fm_anio": 2026, "fm_severid": "ALTA", "ORIG_FID": null }, "geometry": { "type": "Point", "coordinates": [ -77.48900842830075, -2.270018978750644 ] } },
{ "type": "Feature", "properties": { "cod": "MAE-RA-2025-572964", "DPA_DESPRO": "ORELLANA", "DPA_DESCAN": "ORELLANA", "DPA_DESPAR": "FRANCISCO DE ORELLANA", "name": "PATRIMONIO FORESTAL NACIONAL", "delimitaci": "PFN", "fm_area": 1.99, "fm_cod": "2026-MAE-DB-SNMB-088", "fm_este": 942342, "fm_norte": 9950274, "fm_date1": "2000-06-01", "fm_date2": "2026-04-05", "Shape_Leng": null, "Shape_Area": null, "fm_monit": "2026-06-30", "fm_anio": 2026, "fm_severid": "ALTA", "ORIG_FID": null }, "geometry": { "type": "Point", "coordinates": [ -77.027867842383245, -0.448801681520949 ] } },
{ "type": "Feature", "properties": { "cod": "20260630_41D15_1244", "DPA_DESPRO": "GUAYAS", "DPA_DESCAN": "GUAYAQUIL", "DPA_DESPAR": "GUAYAQUIL", "name": "PATRIMONIO FORESTAL NACIONAL", "delimitaci": "PFN", "fm_area": 45.826, "fm_cod": "2026-MAE-DB-SNMB-089", "fm_este": 585833, "fm_norte": 9749690, "fm_date1": "2026-04-23", "fm_date2": "2026-06-27", "Shape_Leng": null, "Shape_Area": null, "fm_monit": "2026-07-31", "fm_anio": 2026, "fm_severid": "ALTA", "ORIG_FID": null }, "geometry": { "type": "Point", "coordinates": [ -80.228064894385099, -2.264410153261368 ] } },
{ "type": "Feature", "properties": { "cod": "20260630_40B04_1003", "DPA_DESPRO": "MANABÍ", "DPA_DESCAN": "PUERTO LÓPEZ", "DPA_DESPAR": "SALANGO", "name": "PATRIMONIO FORESTAL NACIONAL", "delimitaci": "PFN", "fm_area": 32.052, "fm_cod": "2026-MAE-DB-SNMB-090", "fm_este": 525487, "fm_norte": 9814120, "fm_date1": "2026-04-03", "fm_date2": "2026-06-27", "Shape_Leng": null, "Shape_Area": null, "fm_monit": "2026-07-31", "fm_anio": 2026, "fm_severid": "ALTA", "ORIG_FID": null }, "geometry": { "type": "Point", "coordinates": [ -80.768601655551436, -1.681608526702698 ] } },
{ "type": "Feature", "properties": { "cod": "20260630_12A07_1038", "DPA_DESPRO": "MANABÍ", "DPA_DESCAN": "PEDERNALES", "DPA_DESPAR": "COJIMÍES", "name": "PATRIMONIO FORESTAL NACIONAL", "delimitaci": "PFN", "fm_area": 21.756, "fm_cod": "2026-MAE-DB-SNMB-091", "fm_este": 625498, "fm_norte": 10020888, "fm_date1": "2026-02-17", "fm_date2": "2026-04-08", "Shape_Leng": null, "Shape_Area": null, "fm_monit": "2026-07-31", "fm_anio": 2026, "fm_severid": "ALTA", "ORIG_FID": null }, "geometry": { "type": "Point", "coordinates": [ -79.872248747832074, 0.188940846502406 ] } },
{ "type": "Feature", "properties": { "cod": "20260630_31A05_1019", "DPA_DESPRO": "MANABÍ", "DPA_DESCAN": "MONTECRISTI", "DPA_DESPAR": "MONTECRISTI", "name": "PATRIMONIO FORESTAL NACIONAL", "delimitaci": "PFN", "fm_area": 21.22, "fm_cod": "2026-MAE-DB-SNMB-092", "fm_este": 529991, "fm_norte": 9879668, "fm_date1": "2026-04-05", "fm_date2": "2026-07-02", "Shape_Leng": null, "Shape_Area": null, "fm_monit": "2026-07-31", "fm_anio": 2026, "fm_severid": "ALTA", "ORIG_FID": null }, "geometry": { "type": "Point", "coordinates": [ -80.730432556060762, -1.088666247577468 ] } },
{ "type": "Feature", "properties": { "cod": "20260630_17B04_1001", "DPA_DESPRO": "SUCUMBÍOS", "DPA_DESCAN": "PUTUMAYO", "DPA_DESPAR": "SANTA ELENA", "name": "PATRIMONIO FORESTAL NACIONAL", "delimitaci": "PFN", "fm_area": 21.054, "fm_cod": "2026-MAE-DB-SNMB-093", "fm_este": 1030842, "fm_norte": 10034263, "fm_date1": "2026-02-01", "fm_date2": "2026-06-01", "Shape_Leng": null, "Shape_Area": null, "fm_monit": "2026-07-31", "fm_anio": 2026, "fm_severid": "ALTA", "ORIG_FID": null }, "geometry": { "type": "Point", "coordinates": [ -76.234931813293031, 0.308905609993631 ] } },
{ "type": "Feature", "properties": { "cod": "20260630_41D11_1225", "DPA_DESPRO": "GUAYAS", "DPA_DESCAN": "GUAYAQUIL", "DPA_DESPAR": "GUAYAQUIL", "name": "PATRIMONIO FORESTAL NACIONAL", "delimitaci": "PFN", "fm_area": 18.244, "fm_cod": "2026-MAE-DB-SNMB-094", "fm_este": 589020, "fm_norte": 9753102, "fm_date1": "2026-03-29", "fm_date2": "2026-06-27", "Shape_Leng": null, "Shape_Area": null, "fm_monit": "2026-07-31", "fm_anio": 2026, "fm_severid": "ALTA", "ORIG_FID": null }, "geometry": { "type": "Point", "coordinates": [ -80.199423897513114, -2.233536216923614 ] } },
{ "type": "Feature", "properties": { "cod": "20260630_50B10_1299", "DPA_DESPRO": "GUAYAS", "DPA_DESCAN": "GUAYAQUIL", "DPA_DESPAR": "MORRO", "name": "PATRIMONIO FORESTAL NACIONAL", "delimitaci": "PFN", "fm_area": 11.159, "fm_cod": "2026-MAE-DB-SNMB-095", "fm_este": 579948, "fm_norte": 9719290, "fm_date1": "2026-03-09", "fm_date2": "2026-06-27", "Shape_Leng": null, "Shape_Area": null, "fm_monit": "2026-07-31", "fm_anio": 2026, "fm_severid": "ALTA", "ORIG_FID": null }, "geometry": { "type": "Point", "coordinates": [ -80.280842103084737, -2.539456327072423 ] } },
{ "type": "Feature", "properties": { "cod": "20260630_41D09_1014", "DPA_DESPRO": "SANTA ELENA", "DPA_DESCAN": "SANTA ELENA", "DPA_DESPAR": "SIMÓN BOLÍVAR", "name": "PATRIMONIO FORESTAL NACIONAL", "delimitaci": "PFN", "fm_area": 10.357, "fm_cod": "2026-MAE-DB-SNMB-096", "fm_este": 569091, "fm_norte": 9758100, "fm_date1": "2026-04-28", "fm_date2": "2026-06-27", "Shape_Leng": null, "Shape_Area": null, "fm_monit": "2026-07-31", "fm_anio": 2026, "fm_severid": "ALTA", "ORIG_FID": null }, "geometry": { "type": "Point", "coordinates": [ -80.378654753628453, -2.188407731935099 ] } },
{ "type": "Feature", "properties": { "cod": "20260630_05A12_1044", "DPA_DESPRO": "ESMERALDAS", "DPA_DESCAN": "ELOY ALFARO", "DPA_DESPAR": "SANTO DOMINGO DE ONZOLE", "name": "PATRIMONIO FORESTAL NACIONAL", "delimitaci": "PFN", "fm_area": 9.956, "fm_cod": "2026-MAE-DB-SNMB-097", "fm_este": 701843, "fm_norte": 10081546, "fm_date1": "2025-12-11", "fm_date2": "2026-06-14", "Shape_Leng": null, "Shape_Area": null, "fm_monit": "2026-07-31", "fm_anio": 2026, "fm_severid": "ALTA", "ORIG_FID": null }, "geometry": { "type": "Point", "coordinates": [ -79.186242384993847, 0.737400971274042 ] } },
{ "type": "Feature", "properties": { "cod": "20260630_21C16_1043", "DPA_DESPRO": "MANABÍ", "DPA_DESCAN": "ROCAFUERTE", "DPA_DESPAR": "SOSOTE", "name": "PATRIMONIO FORESTAL NACIONAL", "delimitaci": "PFN", "fm_area": 9.66, "fm_cod": "2026-MAE-DB-SNMB-098", "fm_este": 556208, "fm_norte": 9897227, "fm_date1": "2026-02-22", "fm_date2": "2026-06-27", "Shape_Leng": null, "Shape_Area": null, "fm_monit": "2026-07-31", "fm_anio": 2026, "fm_severid": "ALTA", "ORIG_FID": null }, "geometry": { "type": "Point", "coordinates": [ -80.494515316126297, -0.927928110422677 ] } },
{ "type": "Feature", "properties": { "cod": "20260630_03C06_1023", "DPA_DESPRO": "ESMERALDAS", "DPA_DESCAN": "SAN LORENZO", "DPA_DESPAR": "TULULBÍ", "name": "BLOQUE 13 ESMERALDAS", "delimitaci": "PFE", "fm_area": 6.77, "fm_cod": "2026-MAE-DB-SNMB-099", "fm_este": 761027, "fm_norte": 10133213, "fm_date1": "2026-01-20", "fm_date2": "2026-06-19", "Shape_Leng": null, "Shape_Area": null, "fm_monit": "2026-07-31", "fm_anio": 2026, "fm_severid": "ALTA", "ORIG_FID": null }, "geometry": { "type": "Point", "coordinates": [ -78.655289795586725, 1.204537455764156 ] } },
{ "type": "Feature", "properties": { "cod": "20260630_03C11_1083", "DPA_DESPRO": "ESMERALDAS", "DPA_DESCAN": "SAN LORENZO", "DPA_DESPAR": "TULULBÍ", "name": "PATRIMONIO FORESTAL NACIONAL", "delimitaci": "PFN", "fm_area": 6.701, "fm_cod": "2026-MAE-DB-SNMB-100", "fm_este": 768256, "fm_norte": 10119987, "fm_date1": "2026-01-20", "fm_date2": "2026-06-19", "Shape_Leng": null, "Shape_Area": null, "fm_monit": "2026-07-31", "fm_anio": 2026, "fm_severid": "ALTA", "ORIG_FID": null }, "geometry": { "type": "Point", "coordinates": [ -78.58885613793106, 1.084209594697742 ] } }
]
}
